ONEWEB-0233             
1 48795U 21045AE  25335.42189420  .00000139  00000+0  33539-3 0  9991
2 48795  87.8975 298.7056 0002099  76.2343 283.9021 13.15548688218297
ONEWEB-0190             
1 48796U 21045AF  25336.16993253 -.00000111  00000+0 -33016-3 0  9993
2 48796  87.8977 298.5181 0002586  78.0590 282.0830 13.15548040218461
ONEWEB-0236             
1 48797U 21045AG  25336.18736075  .00000118  00000+0  27897-3 0  9998
2 48797  87.8974 298.5258 0001703  80.6955 279.4368 13.15549299218359
ONEWEB-0248             
1 48798U 21045AH  25335.97186497  .00000130  00000+0  31067-3 0  9990
2 48798  87.8988 298.5314 0002253  69.0770 291.0601 13.15549443218480
ONEWEB-0225             
1 48799U 21045AJ  25336.14616382 -.00000077  00000+0 -23876-3 0  9993
2 48799  87.8979 298.5215 0002443  77.7084 282.4320 13.15549358218517
ONEWEB-0215             
1 48800U 21045AK  25335.88788852  .00000186  00000+0  46128-3 0  9992
2 48800  87.8995 298.5325 0002474  73.6189 286.5213 13.15549221218352
ONEWEB-0216             
1 48801U 21045AL  25335.97345242  .00000160  00000+0  39193-3 0  9991
2 48801  87.8978 298.5477 0001967  86.7572 273.3783 13.15548191218372
ONEWEB-0239             
1 48802U 21045AM  25336.13031698  .00000104  00000+0  24351-3 0  9996
2 48802  87.8980 298.5311 0002433  66.1424 293.9961 13.15549274218436
